NORAD_CAT_ID,OBJECT_NAME,OBJECT_TYPE,EPOCH,MEAN_MOTION,ECCENTRICITY,INCLINATION,RA_OF_ASC_NODE,ARG_OF_PERICENTER,MEAN_ANOMALY,BSTAR,MEAN_MOTION_DOT,MEAN_MOTION_DDOT,TLE_LINE0,TLE_LINE1,TLE_LINE2,SEMIMAJOR_AXIS,PERIOD,APOGEE,PERIGEE,DECAYED
55319.0,STARLINK-5196,PAYLOAD,2023-02-04 00:00:00,15.76271567,0.0003523,70.0001,25.4641,270.4213,175.718,-0.0058049,-0.00831222,0.0,0 STARLINK-5196,1 55319U 23010BC  23035.00001157 -.00831222  00000-0 -58049-2 0  9994,2 55319  70.0001  25.4641 0003523 270.4213 175.7180 15.76271567  2937,6719.152,91.355,343.384,338.65,0.0
55319.0,STARLINK-5196,PAYLOAD,2023-02-04 14:00:01,15.75231636,0.0003399,69.9994,23.8094,263.776,250.4147,-0.006155,-0.00840899,0.0,0 STARLINK-5196,1 55319U 23010BC  23035.58334491 -.00840899  00000-0 -61550-2 0  9998,2 55319  69.9994  23.8094 0003399 263.7760 250.4147 15.75231636  1308,6722.109,91.415,346.259,341.689,0.0
55319.0,STARLINK-5196,PAYLOAD,2023-02-04 22:00:00,15.74629684,0.0003491,69.9999,22.8657,265.1942,338.3285,-0.0062693,-0.00834921,0.0,0 STARLINK-5196,1 55319U 23010BC  23035.91667824 -.00834921  00000-0 -62693-2 0  9992,2 55319  69.9999  22.8657 0003491 265.1942 338.3285 15.74629684  1300,6723.822,91.45,348.034,343.34,0.0
55319.0,STARLINK-5196,PAYLOAD,2023-02-05 00:00:02,15.74480764,0.0003598,70.0,22.6299,266.9932,88.8155,-0.0063174,-0.00835846,0.0,0 STARLINK-5196,1 55319U 23010BC  23036.00002315 -.00835846  00000-0 -63174-2 0  9993,2 55319  70.0000  22.6299 0003598 266.9932  88.8155 15.74480764  3097,6724.246,91.459,348.531,343.692,0.0
55319.0,STARLINK-5196,PAYLOAD,2023-02-05 14:00:01,15.73438748,0.0003912,69.9948,20.9709,267.1905,152.9425,-0.0067371,-0.00850696,0.0,0 STARLINK-5196,1 55319U 23010BC  23036.58335648 -.00850696  00000-0 -67371-2 0  9997,2 55319  69.9948  20.9709 0003912 267.1905 152.9425 15.73438748  1304,6727.215,91.519,351.711,346.448,0.0
55319.0,STARLINK-5196,PAYLOAD,2023-02-05 22:00:00,15.72851975,0.0003525,69.9953,20.03,263.4113,243.8263,-0.0068632,-0.00845403,0.0,0 STARLINK-5196,1 55319U 23010BC  23036.91667824 -.00845403  00000-0 -68632-2 0  9999,2 55319  69.9953  20.0300 0003525 263.4113 243.8263 15.72851975  1308,6728.888,91.553,353.125,348.381,0.0
55319.0,STARLINK-5196,PAYLOAD,2023-02-06 06:00:00,15.72205092,0.000356,69.9956,19.0892,269.7764,323.9488,-0.0065597,-0.00791136,0.0,0 STARLINK-5196,1 55319U 23010BC  23037.25001157 -.00791136  00000-0 -65597-2 0  9998,2 55319  69.9956  19.0892 0003560 269.7764 323.9488 15.72205092  3297,6730.733,91.591,354.994,350.202,0.0
55319.0,STARLINK-5196,PAYLOAD,2023-02-06 14:00:01,15.71658613,0.0003641,69.9954,18.1492,268.2869,51.1657,-0.0075019,-0.0087515,0.0,0 STARLINK-5196,1 55319U 23010BC  23037.58334491 -.00875150  00000-0 -75019-2 0  9993,2 55319  69.9954  18.1492 0003641 268.2869  51.1657 15.71658613  1309,6732.293,91.623,356.61,351.707,0.0
55319.0,STARLINK-5196,PAYLOAD,2023-02-06 22:00:00,15.71061104,0.0003661,69.9956,17.2103,266.2558,138.2179,-0.007501,-0.0085528,0.0,0 STARLINK-5196,1 55319U 23010BC  23037.91667824 -.00855280  00000-0 -75010-2 0  9992,2 55319  69.9956  17.2103 0003661 266.2558 138.2179 15.71061104  1304,6734.0,91.658,358.33,353.4,0.0
55319.0,STARLINK-5196,PAYLOAD,2023-02-07 00:00:00,15.7092182,0.0003537,69.996,16.9755,267.265,248.3543,-0.0077928,-0.00880582,0.0,0 STARLINK-5196,1 55319U 23010BC  23038.00001157 -.00880582  00000-0 -77928-2 0  9997,2 55319  69.9960  16.9755 0003537 267.2650 248.3543 15.70921820  3415,6734.398,91.666,358.645,353.881,0.0
55319.0,STARLINK-5196,PAYLOAD,2023-02-07 14:00:01,15.6995417,0.0003402,69.9976,15.3339,269.3106,303.0852,-0.00074529,-0.00088997,0.0,0 STARLINK-5196,1 55319U 23010BC  23038.58334491 -.00088997  00000-0 -74529-3 0  9995,2 55319  69.9976  15.3339 0003402 269.3106 303.0852 15.69954170  1303,6737.165,91.722,361.322,356.738,0.0
55319.0,STARLINK-5196,PAYLOAD,2023-02-07 16:00:01,15.69896608,0.0003395,69.998,15.0994,266.0841,57.2291,0.00015872,0.00018893,0.0,0 STARLINK-5196,1 55319U 23010BC  23038.66668981  .00018893  00000-0  15872-3 0  9990,2 55319  69.9980  15.0994 0003395 266.0841  57.2291 15.69896608  3514,6737.33,91.726,361.482,356.907,0.0
55319.0,STARLINK-5196,PAYLOAD,2023-02-07 22:00:00,15.69937704,0.0003481,69.9993,14.3965,263.7734,31.9447,-2.4873e-05,-3.204e-05,0.0,0 STARLINK-5196,1 55319U 23010BC  23038.91667824 -.00003204  00000-0 -24873-4 0  9997,2 55319  69.9993  14.3965 0003481 263.7734  31.9447 15.69937704  1309,6737.212,91.723,361.422,356.732,0.0
55319.0,STARLINK-5196,PAYLOAD,2023-02-08 14:00:01,15.69946558,0.0003356,70.0,12.522,273.4327,188.9594,-0.00052508,-0.00062937,0.0,0 STARLINK-5196,1 55319U 23010BC  23039.58334491 -.00062937  00000-0 -52508-3 0  9995,2 55319  70.0000  12.5220 0003356 273.4327 188.9594 15.69946558  1305,6737.187,91.723,361.313,356.791,0.0
55319.0,STARLINK-5196,PAYLOAD,2023-02-08 22:00:00,15.69958816,0.0003347,70.0005,11.5852,267.4789,278.2333,-0.00018225,-0.00022101,0.0,0 STARLINK-5196,1 55319U 23010BC  23039.91667824 -.00022101  00000-0 -18225-3 0  9998,2 55319  70.0005  11.5852 0003347 267.4789 278.2333 15.69958816  3716,6737.152,91.722,361.272,356.762,0.0
55319.0,STARLINK-5196,PAYLOAD,2023-02-09 12:00:00,15.69978082,0.0003359,69.9999,9.9449,270.7883,330.798,-0.0012292,-0.00145805,0.0,0 STARLINK-5196,1 55319U 23010BC  23040.50001157 -.00145805  00000-0 -12292-2 0  9990,2 55319  69.9999   9.9449 0003359 270.7883 330.7980 15.69978082  1305,6737.097,91.721,361.225,356.699,0.0
55319.0,STARLINK-5196,PAYLOAD,2023-02-09 22:00:00,15.6986568,0.0003854,70.0005,8.7732,260.4742,175.3122,0.00050433,0.00060727,0.0,0 STARLINK-5196,1 55319U 23010BC  23040.91667824  .00060727  00000-0  50433-3 0  9991,2 55319  70.0005   8.7732 0003854 260.4742 175.3122 15.69865680  1308,6737.418,91.728,361.88,356.687,0.0
55319.0,STARLINK-5196,PAYLOAD,2023-02-10 02:00:01,15.69901687,0.0003863,70.0007,8.3047,263.5732,33.8505,0.00010582,0.00012519,0.0,0 STARLINK-5196,1 55319U 23010BC  23041.08334491  .00012519  00000-0  10582-3 0  9998,2 55319  70.0007   8.3047 0003863 263.5732  33.8505 15.69901687  3895,6737.315,91.725,361.783,356.578,0.0
55319.0,STARLINK-5196,PAYLOAD,2023-02-10 04:00:00,15.69900539,0.0003814,70.0006,8.0705,265.148,143.1044,0.00018382,0.00021928,0.0,0 STARLINK-5196,1 55319U 23010BC  23041.16667824  .00021928  00000-0  18382-3 0  9996,2 55319  70.0006   8.0705 0003814 265.1480 143.1044 15.69900539  1308,6737.319,91.726,361.753,356.614,0.0
55319.0,STARLINK-5196,PAYLOAD,2023-02-10 22:00:00,15.69892559,0.0003626,70.0008,5.9623,257.3064,68.4037,0.0006785,0.00082069,0.0,0 STARLINK-5196,1 55319U 23010BC  23041.91667824  .00082069  00000-0  67850-3 0  9996,2 55319  70.0008   5.9623 0003626 257.3064  68.4037 15.69892559  1300,6737.341,91.726,361.649,356.763,0.0
55319.0,STARLINK-5196,PAYLOAD,2023-02-11 04:15:46,15.69923449,0.0003637,69.9999,5.2291,258.7077,101.3711,0.00014279,0.00016992,0.0,0 STARLINK-5196,1 55319U 23010BC  23042.17762707  .00016992  00000-0  14279-3 0  9990,2 55319  69.9999   5.2291 0003637 258.7077 101.3711 15.69923449  4066,6737.253,91.724,361.568,356.668,0.0
55319.0,STARLINK-5196,PAYLOAD,2023-02-11 08:51:02,15.69945113,0.0003153,70.0001,4.6921,254.9163,105.1684,0.00021658,0.00025931,0.0,0 STARLINK-5196,1 55319U 23010BC  23042.36877504  .00025931  00000-0  21658-3 0  9995,2 55319  70.0001   4.6921 0003153 254.9163 105.1684 15.69945113  4099,6737.191,91.723,361.18,356.932,0.0
55319.0,STARLINK-5196,PAYLOAD,2023-02-12 09:19:04,15.69945649,0.0002942,70.0013,1.8244,262.6686,97.4176,0.00013488,0.0001605,0.0,0 STARLINK-5196,1 55319U 23010BC  23043.38824210  .00016050  00000-0  13488-3 0  9998,2 55319  70.0013   1.8244 0002942 262.6686  97.4176 15.69945649  4251,6737.189,91.723,361.037,357.072,0.0
55319.0,STARLINK-5196,PAYLOAD,2023-02-13 03:40:05,15.69938335,0.0003708,70.0015,359.6759,266.6357,93.4415,6.242e-05,7.304e-05,0.0,0 STARLINK-5196,1 55319U 23010BC  23044.15283810  .00007304  00000-0  62420-4 0  9992,2 55319  70.0015 359.6759 0003708 266.6357  93.4415 15.69938335  4377,6737.21,91.723,361.574,356.577,0.0
55319.0,STARLINK-5196,PAYLOAD,2023-02-13 14:22:21,15.69924369,0.0002947,70.0006,358.4215,265.0649,95.021,1.0606e-05,1.063e-05,0.0,0 STARLINK-5196,1 55319U 23010BC  23044.59886012  .00001063  00000-0  10606-4 0  9998,2 55319  70.0006 358.4215 0002947 265.0649  95.0210 15.69924369  4443,6737.25,91.724,361.101,357.13,0.0
55319.0,STARLINK-5196,PAYLOAD,2023-02-15 06:07:54,15.69906734,0.0003096,70.0005,353.7625,267.5877,92.4964,-3.5287e-05,-4.45e-05,0.0,0 STARLINK-5196,1 55319U 23010BC  23046.25549294 -.00004450  00000-0 -35287-4 0  9998,2 55319  70.0005 353.7625 0003096 267.5877  92.4964 15.69906734  4703,6737.301,91.725,361.252,357.08,0.0
55319.0,STARLINK-5196,PAYLOAD,2023-02-15 13:46:40,15.69936763,0.0003079,70.0008,352.8665,264.5316,95.5529,0.0002045,0.0002446,0.0,0 STARLINK-5196,1 55319U 23010BC  23046.57407546  .00024460  00000-0  20450-3 0  9992,2 55319  70.0008 352.8665 0003079 264.5316  95.5529 15.69936763  4757,6737.215,91.723,361.154,357.006,0.0
55319.0,STARLINK-5196,PAYLOAD,2023-02-15 21:25:25,15.69936098,0.0003245,70.0002,351.9713,267.2776,92.8048,0.00013183,0.00015676,0.0,0 STARLINK-5196,1 55319U 23010BC  23046.89265887  .00015676  00000-0  13183-3 0  9991,2 55319  70.0002 351.9713 0003245 267.2776  92.8048 15.69936098  5994,6737.217,91.723,361.268,356.896,0.0
55319.0,STARLINK-5196,PAYLOAD,2023-02-16 08:07:41,15.69924586,0.0003131,70.0007,350.7168,269.6132,90.4705,8.5387e-05,0.00010067,0.0,0 STARLINK-5196,1 55319U 23010BC  23047.33867624  .00010067  00000-0  85387-4 0  9993,2 55319  70.0007 350.7168 0003131 269.6132  90.4705 15.69924586  4875,6737.25,91.724,361.224,357.005,0.0
55319.0,STARLINK-5196,PAYLOAD,2023-02-16 12:42:57,15.69907866,0.0003247,70.0006,350.1799,264.7697,95.3128,-8.6833e-06,-1.256e-05,0.0,0 STARLINK-5196,1 55319U 23010BC  23047.52982945 -.00001256  00000-0 -86833-5 0  9998,2 55319  70.0006 350.1799 0003247 264.7697  95.3128 15.69907866  6099,6737.298,91.725,361.35,356.975,0.0
